[{"OBJECT_NAME":"THEA","OBJECT_ID":"2018-099AQ","EPOCH":"2026-03-09T22:33:02.658240","MEAN_MOTION":15.31454284,"ECCENTRICITY":0.00065849,"INCLINATION":97.4542,"RA_OF_ASC_NODE":137.8815,"ARG_OF_PERICENTER":275.4664,"MEAN_ANOMALY":84.5826,"EPHEMERIS_TYPE":0,"CLASSIFICATION_TYPE":"U","NORAD_CAT_ID":43796,"ELEMENT_SET_NO":999,"REV_AT_EPOCH":39748,"BSTAR":0.00074635274,"MEAN_MOTION_DOT":0.00022649,"MEAN_MOTION_DDOT":0},{"OBJECT_NAME":"STARLINK-32263","OBJECT_ID":"2024-138S","EPOCH":"2026-03-09T21:32:12.571008","MEAN_MOTION":15.30186902,"ECCENTRICITY":0.00010471,"INCLINATION":53.1598,"RA_OF_ASC_NODE":308.3393,"ARG_OF_PERICENTER":90.2189,"MEAN_ANOMALY":269.8932,"EPHEMERIS_TYPE":0,"CLASSIFICATION_TYPE":"U","NORAD_CAT_ID":60371,"ELEMENT_SET_NO":999,"REV_AT_EPOCH":9056,"BSTAR":2.2275173e-5,"MEAN_MOTION_DOT":3.01e-6,"MEAN_MOTION_DDOT":0}]
